{"type":"FeatureCollection","meta":{"source":"서울시 도시계획사업 현황(서울플랜+) 공간정보","sourceDate":"2026-02-11","crs":"EPSG:4326","legalEffect":false,"webSimplified":true,"matchedProjects":["sindaebang344_132","heukseok204_104","sangdo201","samseon277"]},"features":[{"type":"Feature","properties":{"projectId":"sindaebang344_132","projectName":"신대방동 344-132 일대(신대방3)","sourceName":"신대방3","businessTypeCode":"BZ101","businessType":"신속통합기획","stageCode":"PP0101","stage":"대상지선정(추진중)","areaSqm":29461.0,"source":"서울시 도시계획사업 현황(서울플랜+) 공간정보","sourceDate":"2026-02-11","legalEffect":false},"geometry":{"type":"Polygon","coordinates":[[[126.92533331127673,37.49392698941708],[126.92558312389126,37.49472268766187],[126.92523409203889,37.4948308350224],[126.92490002184293,37.49508089844212],[126.92488816593347,37.4952186084925],[126.9261353716453,37.49531230385741],[126.92628234593802,37.495445466119534],[126.92730143390993,37.49529995777784],[126.92711927421634,37.49452353498448],[126.92657644557873,37.493891639070156],[126.92648492422717,37.493480642314864],[126.92656102260052,37.493218408743985],[126.92622126812067,37.493273703293276],[126.92558692538383,37.49367069218431],[126.92533331127673,37.49392698941708]]]}},{"type":"Feature","properties":{"projectId":"heukseok204_104","projectName":"흑석동 204-104 일대(흑석10)","sourceName":"흑석10","businessTypeCode":"BZ101","businessType":"신속통합기획","stageCode":"PP0101","stage":"대상지선정(추진중)","areaSqm":45882.0,"source":"서울시 도시계획사업 현황(서울플랜+) 공간정보","sourceDate":"2026-02-11","legalEffect":false},"geometry":{"type":"Polygon","coordinates":[[[126.95793715003826,37.50701895909804],[126.95779144191079,37.50719747396835],[126.95763366828243,37.50711976749379],[126.95760319347744,37.50697522714469],[126.95748916697472,37.506975013513205],[126.95746357702092,37.5070830155655],[126.95717531557052,37.50709158432473],[126.957016403291,37.506952014101614],[126.95725541256331,37.506650954444325],[126.95648819344561,37.506335162140566],[126.9559518733746,37.507037167033346],[126.95540196183129,37.50722118963311],[126.95524777850183,37.50743245831954],[126.95546030468131,37.50772678012465],[126.95532235068286,37.50810282061805],[126.95555255198947,37.50844187464448],[126.955486752965,37.508675829028114],[126.9556872321369,37.50892459124566],[126.95554535361708,37.50924331796474],[126.95586597662563,37.50939246724632],[126.95623773358372,37.509094236073366],[126.95635436117013,37.50915468988287],[126.95675975413738,37.50870247414818],[126.95712150803749,37.50889729815615],[126.95711075952322,37.50865551148263],[126.9572071842458,37.508607966019476],[126.95716191940728,37.50849588298031],[126.95738525544547,37.508293899940504],[126.95753049625701,37.507741273265296],[126.95845481398327,37.50694502385764],[126.95804960131349,37.50708324165681],[126.95793715003826,37.50701895909804]]]}},{"type":"Feature","properties":{"projectId":"sangdo201","projectName":"상도동 201 일대(상도23)","sourceName":"상도23","businessTypeCode":"BZ101","businessType":"신속통합기획","stageCode":"PP0101","stage":"대상지선정(추진중)","areaSqm":80937.0,"source":"서울시 도시계획사업 현황(서울플랜+) 공간정보","sourceDate":"2026-02-11","legalEffect":false},"geometry":{"type":"Polygon","coordinates":[[[126.93862439220744,37.50099746387653],[126.93888243441326,37.50122246314364],[126.93983035183375,37.501591631520185],[126.93990321462468,37.501687410529385],[126.94070149696161,37.50170879940429],[126.94147482858205,37.50078790605625],[126.9414788275479,37.50056741573257],[126.9409999170404,37.50011763617185],[126.94100712658694,37.5000403882445],[126.93957537899959,37.498861482346115],[126.93910645686123,37.49865250117161],[126.93754543072255,37.49824223433757],[126.93752121199492,37.498833555758615],[126.93841546964815,37.49888710560392],[126.9383718509825,37.49910319586038],[126.93824732214657,37.49907290973858],[126.9382112772453,37.49927857942937],[126.93806791547115,37.49927932243201],[126.93804851505094,37.49939318923733],[126.93794828857119,37.49937606142589],[126.93790232219934,37.49945157641406],[126.93783912611181,37.4997875878382],[126.93740582928443,37.5008443869766],[126.93760160295487,37.500893183011456],[126.93720502481986,37.501163123164574],[126.93729943261185,37.5016254497597],[126.93739309179968,37.50173462955195],[126.93725270575757,37.501780999733505],[126.93762844123512,37.501740343250184],[126.93784941863531,37.50162401751987],[126.93786408496182,37.501519311393714],[126.93862439220744,37.50099746387653]]]}},{"type":"Feature","properties":{"projectId":"samseon277","projectName":"삼선동1가 277 일대(삼선3)","sourceName":"삼선3","businessTypeCode":"BZ101","businessType":"신속통합기획","stageCode":"PP0101","stage":"대상지선정(추진중)","areaSqm":56770.0,"source":"서울시 도시계획사업 현황(서울플랜+) 공간정보","sourceDate":"2026-02-11","legalEffect":false},"geometry":{"type":"Polygon","coordinates":[[[127.00690447407482,37.58491763344954],[127.00701734953795,37.58535338095606],[127.00724800943794,37.58522515072034],[127.0072087701111,37.58599337798788],[127.0078404174896,37.58626667783122],[127.0087159438625,37.586418173460835],[127.0087735397798,37.58619777987485],[127.00864284919905,37.58617760575831],[127.0088674173396,37.585930676908994],[127.00862627846425,37.58574876466825],[127.00852971784916,37.5855421203868],[127.00861218056174,37.58477067351305],[127.00948675855483,37.58445930011838],[127.00950844176877,37.583633121669486],[127.00949832939912,37.58371800423454],[127.00878935714067,37.583643385324685],[127.00887752656688,37.58350299724711],[127.0085808746606,37.58331695275974],[127.00837473303014,37.58331181127134],[127.00834145439721,37.582886322568505],[127.00859664472272,37.582472034160105],[127.00827008455407,37.5825127778572],[127.00752372025532,37.58287316754872],[127.00735870084823,37.58317877225669],[127.00736537784951,37.583434471739324],[127.00720998745982,37.58369127833715],[127.00719204407919,37.584155034641064],[127.00690447407482,37.58491763344954]]]}}]}