{"type":"FeatureCollection","meta":{"source":"서울시 도시계획사업 현황(서울플랜+) 공간정보","sourceDate":"2026-02-11","crs":"EPSG:4326","legalEffect":false,"webSimplified":true,"matchedProjects":["sinchang29_1","guro466","gaebong153_19","banghak641"]},"features":[{"type":"Feature","properties":{"projectId":"sinchang29_1","projectName":"신창동 29-1 일대","sourceName":"신창동 29-1","businessTypeCode":"BZ101","businessType":"신속통합기획","stageCode":"PP0101","stage":"대상지선정(추진중)","areaSqm":16024.0,"source":"서울시 도시계획사업 현황(서울플랜+) 공간정보","sourceDate":"2026-02-11","legalEffect":false},"geometry":{"type":"Polygon","coordinates":[[[126.95467759639892,37.534252832417664],[126.95476789643784,37.534266644385404],[126.9547594295675,37.5343636149528],[126.9552179661338,37.53445430038677],[126.95514803669822,37.53463248042895],[126.95501193572242,37.53463845456011],[126.95517919854545,37.53477420990167],[126.95487882640637,37.53496383184819],[126.95488985379444,37.53511549139211],[126.95551888474421,37.5351571026643],[126.9563253059095,37.53365157473858],[126.95532425626831,37.533582747980084],[126.95480436880447,37.53345689093955],[126.95477535331409,37.53395696688603],[126.95467759639892,37.534252832417664]]]}},{"type":"Feature","properties":{"projectId":"guro466","projectName":"구로동 466 일대","sourceName":"구로동 466","businessTypeCode":"BZ101","businessType":"신속통합기획","stageCode":"PP0101","stage":"대상지선정(추진중)","areaSqm":63871.0,"source":"서울시 도시계획사업 현황(서울플랜+) 공간정보","sourceDate":"2026-02-11","legalEffect":false},"geometry":{"type":"Polygon","coordinates":[[[126.88023677473262,37.49511744674345],[126.88205594665831,37.496090396767755],[126.88232631277153,37.496028500915976],[126.88226906872006,37.49590149241511],[126.88246858593625,37.495805196647375],[126.88222859565138,37.49511280721143],[126.88228241816566,37.49504429551971],[126.88213831712912,37.49492458743801],[126.8822829215471,37.494798773800056],[126.88217113652982,37.49455295849608],[126.88224319428977,37.49453690337976],[126.8821563775483,37.494447616795846],[126.88193058845935,37.493576302506426],[126.88148746681269,37.493342584462674],[126.88150140973939,37.49310914971998],[126.88133065085401,37.493045275490964],[126.88137682712912,37.492949456130226],[126.88123774886967,37.492803623038554],[126.88137493015829,37.49265122342684],[126.88219648815021,37.49269115935627],[126.88198729463714,37.49212340839173],[126.8806792217695,37.492053782046305],[126.8807261011502,37.49201301470863],[126.88044916513684,37.49180991628272],[126.88025699530242,37.4919127935487],[126.88009706068597,37.49494413124017],[126.88023677473262,37.49511744674345]]]}},{"type":"Feature","properties":{"projectId":"gaebong153_19","projectName":"개봉동 153-19 일대","sourceName":"개봉동 153-19","businessTypeCode":"BZ101","businessType":"신속통합기획","stageCode":"PP0101","stage":"대상지선정(추진중)","areaSqm":27100.0,"source":"서울시 도시계획사업 현황(서울플랜+) 공간정보","sourceDate":"2026-02-11","legalEffect":false},"geometry":{"type":"Polygon","coordinates":[[[126.85382955764311,37.499497054083406],[126.85399530989372,37.49974743227706],[126.85423578450651,37.49966199334173],[126.85427537718661,37.49977115354989],[126.85440326891049,37.499776808962274],[126.85469239677097,37.499681122255254],[126.85472554269872,37.49979099509903],[126.855235226862,37.49979342928279],[126.85524798366855,37.49992075609174],[126.85542022772123,37.49991547313194],[126.85538574750451,37.49921301242798],[126.85550531055242,37.499255867565495],[126.85579703113422,37.49898809071002],[126.85619399636046,37.49879774826676],[126.85608462693781,37.49868859290724],[126.85650425280905,37.49824068191159],[126.85576016692718,37.498172371583095],[126.85565669543402,37.498055024009325],[126.8557288755049,37.49798069064458],[126.8556696361265,37.4977972643777],[126.85552377312868,37.49802089219333],[126.85534387701742,37.497834974008526],[126.8542919596556,37.49887062666507],[126.85344872769055,37.49924267615227],[126.85382955764311,37.499497054083406]]]}},{"type":"Feature","properties":{"projectId":"banghak641","projectName":"방학동 641 일대","sourceName":"방학동 641","businessTypeCode":"BZ101","businessType":"신속통합기획","stageCode":"PP0101","stage":"대상지선정(추진중)","areaSqm":72282.0,"source":"서울시 도시계획사업 현황(서울플랜+) 공간정보","sourceDate":"2026-02-11","legalEffect":false},"geometry":{"type":"Polygon","coordinates":[[[127.0394801392993,37.66990289662829],[127.039035181928,37.66705281150462],[127.03833449768985,37.6665815530478],[127.03620219129398,37.668534316587],[127.03584832170762,37.66895096052913],[127.03653290255782,37.66939043400747],[127.03812835305581,37.67008919452139],[127.03841887918973,37.66965715341651],[127.0394801392993,37.66990289662829]]]}}]}