{"type":"FeatureCollection","meta":{"source":"서울시 도시계획사업 현황(서울플랜+) 공간정보","sourceDate":"2026-02-11","crs":"EPSG:4326","legalEffect":false,"webSimplified":true,"matchedProjects":["hannam1","bukgajwa74_107","gaebong120_1","bulgwang359_1"]},"features":[{"type":"Feature","properties":{"projectId":"hannam1","projectName":"이태원동 730 일대(한남1구역)","sourceName":"한남1구역","businessTypeCode":"BZ404","businessType":"존치관리구역","stageCode":"","stage":"","areaSqm":58795.0,"source":"서울시 도시계획사업 현황(서울플랜+) 공간정보","sourceDate":"2026-02-11","legalEffect":false},"geometry":{"type":"Polygon","coordinates":[[[127.00165941165635,37.52419445222533],[127.0014311785805,37.523816777670625],[127.00136556281942,37.52385395356332],[127.00122079803621,37.52362821076549],[127.00117547777809,37.52371118148192],[127.00105777359886,37.52359480855234],[127.00096103752708,37.52330118012186],[127.00074186594405,37.523058735494686],[127.00057004767257,37.52302048429188],[127.00011547544673,37.52261802501438],[126.99980228337726,37.522824373125715],[126.99969878629507,37.522947212368116],[126.99972449056831,37.52307274572256],[126.99924286102329,37.52305227042338],[126.99887149536337,37.522905722122005],[126.99844803450027,37.5232311342302],[126.99826640969671,37.5231548952667],[126.99813720203726,37.523407846037095],[126.99839002242386,37.523528129547145],[126.99834807978543,37.52362510794171],[126.99841369522962,37.52365420191563],[126.99829937295202,37.52375710511264],[126.9984231572852,37.5240297243056],[126.99832709432928,37.52433682140542],[126.99836226629631,37.52449468118032],[126.9985141278756,37.52467840342165],[126.99850905569551,37.5246124045099],[126.99870506038363,37.524626818050876],[126.99863825623937,37.52480158063206],[126.99888558015674,37.52529449008296],[126.9999678131848,37.52517179013129],[127.00044381798226,37.52497873112896],[127.00072206662645,37.524699736642],[127.00100522148209,37.52462059751365],[127.0011599641839,37.52436084753259],[127.00165941165635,37.52419445222533]]]}},{"type":"Feature","properties":{"projectId":"bukgajwa74_107","projectName":"북가좌동 74-107 일대","sourceName":"북가좌동 74-107 일대","businessTypeCode":"BZ101","businessType":"신속통합기획","stageCode":"PP0101","stage":"대상지선정(추진중)","areaSqm":26163.0,"source":"서울시 도시계획사업 현황(서울플랜+) 공간정보","sourceDate":"2026-02-11","legalEffect":false},"geometry":{"type":"Polygon","coordinates":[[[126.91424096528529,37.578387734745014],[126.91337845683144,37.57955506954028],[126.91338558556136,37.579682843718345],[126.91553930045113,37.58042856541748],[126.91627529102021,37.57976345057616],[126.91624846330058,37.57969145141225],[126.91496515589633,37.579263882492405],[126.91476092904402,37.5787262221612],[126.91439314719045,37.57876873914957],[126.91431511480742,37.578710999487186],[126.91424096528529,37.578387734745014]]]}},{"type":"Feature","properties":{"projectId":"gaebong120_1","projectName":"개봉동 120-1 일대","sourceName":"개봉동 120-1","businessTypeCode":"BZ101","businessType":"신속통합기획","stageCode":"PP0101","stage":"대상지선정(추진중)","areaSqm":76163.0,"source":"서울시 도시계획사업 현황(서울플랜+) 공간정보","sourceDate":"2026-02-11","legalEffect":false},"geometry":{"type":"Polygon","coordinates":[[[126.84919131643237,37.50269826620463],[126.84681937070783,37.501792204319244],[126.84671616272043,37.50182549613821],[126.8454109848457,37.50453713225814],[126.84783679048309,37.5052990425136],[126.84919131643237,37.50269826620463]]]}},{"type":"Feature","properties":{"projectId":"bulgwang359_1","projectName":"불광동 359-1 일대","sourceName":"불광동 359-1","businessTypeCode":"BZ101","businessType":"신속통합기획","stageCode":"PP0101","stage":"대상지선정(추진중)","areaSqm":104783.0,"source":"서울시 도시계획사업 현황(서울플랜+) 공간정보","sourceDate":"2026-02-11","legalEffect":false},"geometry":{"type":"Polygon","coordinates":[[[126.92312168154953,37.6248993874825],[126.9236217808732,37.62476459069345],[126.9233273192699,37.624321545662234],[126.92320763352734,37.624276011884184],[126.9232956414455,37.62395937598455],[126.92343419835655,37.623950953494806],[126.92362012339166,37.62347950370685],[126.92374635929583,37.62332560956698],[126.92385892648596,37.623352893284896],[126.9239216094713,37.62320373230385],[126.92434798716248,37.623303209761154],[126.92452822131482,37.622828961728125],[126.92476491307295,37.62290146458153],[126.92510878076244,37.62249192219032],[126.92596277083193,37.62292214927374],[126.92626450033029,37.62295594861933],[126.92648927098169,37.62314782020931],[126.9269289037687,37.62313512481072],[126.92731437281925,37.62301535734811],[126.92630380171309,37.62161162181261],[126.92575866782296,37.62126477786393],[126.92482830020174,37.62085168667314],[126.92396639838358,37.62213512778872],[126.92386952312567,37.62285761375493],[126.92356511132434,37.62279048828684],[126.92340827253688,37.6230039338653],[126.92309851881897,37.62291280246304],[126.92283179512366,37.62352159700317],[126.92282233830181,37.62346627055371],[126.92232138515664,37.62340584007258],[126.92234045588481,37.62379489582275],[126.92170345411157,37.6239275413553],[126.92140693921266,37.624120609526024],[126.92108378690921,37.62387630535721],[126.92089894202364,37.6238562675706],[126.92055401450304,37.62333589594777],[126.92009168311836,37.623282600232336],[126.9202563049978,37.62546874195927],[126.92060237309441,37.6254352110714],[126.92062188178647,37.625516853163816],[126.92084873624664,37.62545132708235],[126.92106970908138,37.62590277841246],[126.9219423842661,37.62539701983609],[126.92205316409758,37.6254030409529],[126.92211172917133,37.62529640443553],[126.92229342605158,37.62529769783755],[126.9222900782338,37.625143357842425],[126.92313034217013,37.625066074406945],[126.92312168154953,37.6248993874825]]]}}]}