{"type":"FeatureCollection","meta":{"generatedAt":"2026-08-31","source":"서울시 도시계획사업 현황(서울플랜+) 공간정보","sourceDate":"2026-02-11","crs":"EPSG:4326","matchedCount":3,"trackedCount":10,"matchedProjects":["sindang10","mia258","beon148"],"note":"서울시 원자료는 법적 효력이 없는 참고자료입니다."},"features":[{"type":"Feature","properties":{"projectId":"sindang10","projectName":"신당10구역","sourceName":"신당10","businessTypeCode":"BZ103","businessType":"재개발(주택정비형)","stageCode":"PP0206","stage":"조합설립인가","areaSqm":47795.1,"source":"서울시 도시계획사업 현황(서울플랜+) 공간정보","sourceDate":"2026-02-11","legalEffect":false},"geometry":{"type":"Polygon","coordinates":[[[127.01043746729107,37.563276312810196],[127.01042794156436,37.56331317299053],[127.01040424020209,37.56340373318292],[127.01037680677342,37.56352033223122],[127.01034350375052,37.563677485223344],[127.0103130972616,37.563923565594465],[127.01033374762376,37.564065217532765],[127.01037626110028,37.564360585538154],[127.01063567995556,37.56424090545914],[127.01085740929122,37.56422872477967],[127.011244751879,37.56421662025631],[127.01134562936107,37.56460992957883],[127.01198927155603,37.564750356430025],[127.01249478483506,37.56467119469061],[127.01302543070432,37.56470664312692],[127.01350128262932,37.564736688818876],[127.01367875940178,37.564738923145796],[127.01399241828452,37.56464995381951],[127.01422368346005,37.56473318953661],[127.01438005978153,37.56478670035071],[127.01459872461167,37.56491453564778],[127.01477450880891,37.564815938860086],[127.0146974298825,37.56450120506525],[127.01456920671582,37.56427261140452],[127.01447169655798,37.56400761427801],[127.0147705835417,37.56374266333269],[127.01496921904047,37.56359369838478],[127.01478415737998,37.563440172777774],[127.01457409864746,37.563377748643234],[127.01441394763974,37.56314385147048],[127.01421962847647,37.56284922207688],[127.01394508273782,37.56239502663034],[127.01370331796488,37.56249714290884],[127.013390985927,37.56269045491691],[127.01309441448089,37.56285609517334],[127.0126838732236,37.56307320099817],[127.0122766006097,37.56329030508984],[127.01191972178522,37.56347172417584],[127.01157936507846,37.56364467147457],[127.01126149992243,37.563755627893364],[127.01121479287092,37.56352756439892],[127.0111243907909,37.56333960746156],[127.01106976713866,37.56324409804591],[127.0108493597617,37.563304941439206],[127.01059281621788,37.563305231730965],[127.01043746729107,37.563276312810196]]]}},{"type":"Feature","properties":{"projectId":"mia258","projectName":"미아동 258 일대","sourceName":"미아동 258","businessTypeCode":"BZ101","businessType":"신속통합기획","stageCode":"PP0103","stage":"기획완료","areaSqm":156651,"source":"서울시 도시계획사업 현황(서울플랜+) 공간정보","sourceDate":"2026-02-11","legalEffect":false},"geometry":{"type":"Polygon","coordinates":[[[127.030690107377,37.6290865069034],[127.03146912899184,37.6280457981849],[127.03220189887298,37.627170182593545],[127.03254897733477,37.62577198822722],[127.03259177799904,37.62512811002718],[127.03298820570359,37.624725177036744],[127.0332839360449,37.623600178778055],[127.03357282254578,37.62307149583825],[127.03355333696983,37.62245892492734],[127.03348859312776,37.62119737227269],[127.03253836297256,37.62080962777761],[127.03222380312033,37.622202030546674],[127.03178665916228,37.62298761773392],[127.03104500048899,37.62395222065114],[127.03046528865048,37.62470180451934],[127.0296024425389,37.625978158515984],[127.02944402266662,37.62652645103746],[127.02984558529872,37.62651585892344],[127.03067043577255,37.62727391315247],[127.02987920229994,37.62772647856644],[127.02939632777414,37.62812355599023],[127.030690107377,37.6290865069034]]]}},{"type":"Feature","properties":{"projectId":"beon148","projectName":"번동 148 일대","sourceName":"번동 148","businessTypeCode":"BZ101","businessType":"신속통합기획","stageCode":"PP0103","stage":"기획완료","areaSqm":108735,"source":"서울시 도시계획사업 현황(서울플랜+) 공간정보","sourceDate":"2026-02-11","legalEffect":false},"geometry":{"type":"Polygon","coordinates":[[[127.03285859805715,37.62740687744285],[127.03348573906685,37.627362417092506],[127.0341735670194,37.627606844599065],[127.03463705397488,37.62797789178626],[127.03538500915782,37.62817194860729],[127.03618988291582,37.62822259316401],[127.03667256321789,37.628258246260415],[127.0373997979266,37.62843335789264],[127.03791090150077,37.62821056947402],[127.03828315691527,37.62797500124048],[127.03731805829177,37.627169011759925],[127.03645131183002,37.62654188364453],[127.0358543499528,37.62622303559066],[127.0336517561112,37.6250749269621],[127.0331914597799,37.62485982811286],[127.03278263412578,37.62522210385829],[127.03269623563153,37.62559881721254],[127.03293153570634,37.6260776073356],[127.03261119160534,37.62683624465217],[127.03285859805715,37.62740687744285]]]}}]}